ELYSIUM STAR 2 & LFF    
1 43760U 18099C   24162.92554830  .00048378  00000+0  18949-2 0  9990
2 43760  97.5165 230.4912 0004953 280.9409  79.1271 15.25619871302286
